[
    {
        "Altitude(m)": 554884.3562337367,
        "Argument of Periapsis(deg)": 0.006622991110713501,
        "Eccentricity": 0.0,
        "Inclination(deg)": 53.0,
        "Latitude(deg)": 28.940863454916464,
        "Longitude(deg)": -135.25478867794644,
        "Mean Anomaly(deg)": 142.81889286757755,
        "RAAN(deg)": 169.99014336852804,
        "Satellite Name": "Starlink Shell 1 756",
        "Satellite Number": 756,
        "Semi-Major Axis(m)": 6931778.249405717,
        "Time(s)": 190
    },
    {
        "Altitude(m)": 554814.420925515,
        "Argument of Periapsis(deg)": 0.0069715695902247375,
        "Eccentricity": 0.0,
        "Inclination(deg)": 53.0,
        "Latitude(deg)": 28.482220649352552,
        "Longitude(deg)": -134.8070436217031,
        "Mean Anomaly(deg)": 143.4457240711343,
        "RAAN(deg)": 169.98962459845055,
        "Satellite Name": "Starlink Shell 1 756",
        "Satellite Number": 756,
        "Semi-Major Axis(m)": 6931778.249405717,
        "Time(s)": 200
    },
    {
        "Altitude(m)": 554745.7233733905,
        "Argument of Periapsis(deg)": 0.007320148069735974,
        "Eccentricity": 0.0,
        "Inclination(deg)": 53.0,
        "Latitude(deg)": 28.021803565501298,
        "Longitude(deg)": -134.36351044860191,
        "Mean Anomaly(deg)": 144.07255527469104,
        "RAAN(deg)": 169.98910582837308,
        "Satellite Name": "Starlink Shell 1 756",
        "Satellite Number": 756,
        "Semi-Major Axis(m)": 6931778.249405717,
        "Time(s)": 210
    },
    {
        "Altitude(m)": 554678.3157642582,
        "Argument of Periapsis(deg)": 0.007668726549247212,
        "Eccentricity": 0.0,
        "Inclination(deg)": 53.0,
        "Latitude(deg)": 27.559660108313924,
        "Longitude(deg)": -133.92408910958008,
        "Mean Anomaly(deg)": 144.69938647824773,
        "RAAN(deg)": 169.98858705829562,
        "Satellite Name": "Starlink Shell 1 756",
        "Satellite Number": 756,
        "Semi-Major Axis(m)": 6931778.249405717,
        "Time(s)": 220
    },
    {
        "Altitude(m)": 554612.2498235811,
        "Argument of Periapsis(deg)": 0.00801730502875845,
        "Eccentricity": 0.0,
        "Inclination(deg)": 53.0,
        "Latitude(deg)": 27.095837148213626,
        "Longitude(deg)": -133.4886808788693,
        "Mean Anomaly(deg)": 145.32621768180445,
        "RAAN(deg)": 169.98806828821813,
        "Satellite Name": "Starlink Shell 1 756",
        "Satellite Number": 756,
        "Semi-Major Axis(m)": 6931778.249405717,
        "Time(s)": 230
    },
    {
        "Altitude(m)": 554547.5767878263,
        "Argument of Periapsis(deg)": 0.008365883508269684,
        "Eccentricity": 0.0,
        "Inclination(deg)": 53.0,
        "Latitude(deg)": 26.630380550813598,
        "Longitude(deg)": -133.05718784804463,
        "Mean Anomaly(deg)": 145.95304888536114,
        "RAAN(deg)": 169.98754951814067,
        "Satellite Name": "Starlink Shell 1 756",
        "Satellite Number": 756,
        "Semi-Major Axis(m)": 6931778.249405717,
        "Time(s)": 240
    },
    {
        "Altitude(m)": 554484.3473771164,
        "Argument of Periapsis(deg)": 0.008714461987780921,
        "Eccentricity": 0.0,
        "Inclination(deg)": 53.0,
        "Latitude(deg)": 26.16333520615342,
        "Longitude(deg)": -132.6295139302841,
        "Mean Anomaly(deg)": 146.5798800889179,
        "RAAN(deg)": 169.9870307480632,
        "Satellite Name": "Starlink Shell 1 756",
        "Satellite Number": 756,
        "Semi-Major Axis(m)": 6931778.249405717,
        "Time(s)": 250
    },
    {
        "Altitude(m)": 554422.6117681195,
        "Argument of Periapsis(deg)": 0.009063040467292158,
        "Eccentricity": 0.0,
        "Inclination(deg)": 53.0,
        "Latitude(deg)": 25.694745057432975,
        "Longitude(deg)": -132.20556434931433,
        "Mean Anomaly(deg)": 147.20671129247464,
        "RAAN(deg)": 169.9865119779857,
        "Satellite Name": "Starlink Shell 1 756",
        "Satellite Number": 756,
        "Semi-Major Axis(m)": 6931778.249405717,
        "Time(s)": 260
    },
    {
        "Altitude(m)": 554362.4195671133,
        "Argument of Periapsis(deg)": 0.009411618946803396,
        "Eccentricity": 0.0,
        "Inclination(deg)": 53.0,
        "Latitude(deg)": 25.22465312923704,
        "Longitude(deg)": -131.78524512612344,
        "Mean Anomaly(deg)": 147.8335424960313,
        "RAAN(deg)": 169.98599320790825,
        "Satellite Name": "Starlink Shell 1 756",
        "Satellite Number": 756,
        "Semi-Major Axis(m)": 6931778.249405717,
        "Time(s)": 270
    },
    {
        "Altitude(m)": 554303.819783359,
        "Argument of Periapsis(deg)": 0.009760197426314633,
        "Eccentricity": 0.0,
        "Inclination(deg)": 53.0,
        "Latitude(deg)": 24.753101555242086,
        "Longitude(deg)": -131.3684640765067,
        "Mean Anomaly(deg)": 148.46037369958802,
        "RAAN(deg)": 169.9854744378308,
        "Satellite Name": "Starlink Shell 1 756",
        "Satellite Number": 756,
        "Semi-Major Axis(m)": 6931778.249405717,
        "Time(s)": 280
    },
    {
        "Altitude(m)": 554246.8608026723,
        "Argument of Periapsis(deg)": 0.01010877590582587,
        "Eccentricity": 0.0,
        "Inclination(deg)": 53.0,
        "Latitude(deg)": 24.280131605396853,
        "Longitude(deg)": -130.955130293882,
        "Mean Anomaly(deg)": 149.0872049031447,
        "RAAN(deg)": 169.9849556677533,
        "Satellite Name": "Starlink Shell 1 756",
        "Satellite Number": 756,
        "Semi-Major Axis(m)": 6931778.249405717,
        "Time(s)": 290
    },
    {
        "Altitude(m)": 554191.5903613104,
        "Argument of Periapsis(deg)": 0.010457354385337106,
        "Eccentricity": 0.0,
        "Inclination(deg)": 53.0,
        "Latitude(deg)": 23.80578371257225,
        "Longitude(deg)": -130.54515363041435,
        "Mean Anomaly(deg)": 149.71403610670143,
        "RAAN(deg)": 169.98443689767583,
        "Satellite Name": "Starlink Shell 1 756",
        "Satellite Number": 756,
        "Semi-Major Axis(m)": 6931778.249405717,
        "Time(s)": 300
    },
    {
        "Altitude(m)": 554138.0555201088,
        "Argument of Periapsis(deg)": 0.010805932864848343,
        "Eccentricity": 0.0,
        "Inclination(deg)": 53.0,
        "Latitude(deg)": 23.33009749868332,
        "Longitude(deg)": -130.13844568948144,
        "Mean Anomaly(deg)": 150.3408673102582,
        "RAAN(deg)": 169.98391812759837,
        "Satellite Name": "Starlink Shell 1 756",
        "Satellite Number": 756,
        "Semi-Major Axis(m)": 6931778.249405717,
        "Time(s)": 310
    },
    {
        "Altitude(m)": 554086.3026389545,
        "Argument of Periapsis(deg)": 0.01115451134435958,
        "Eccentricity": 0.0,
        "Inclination(deg)": 53.0,
        "Latitude(deg)": 22.853111800277098,
        "Longitude(deg)": -129.73491930387885,
        "Mean Anomaly(deg)": 150.96769851381487,
        "RAAN(deg)": 169.98339935752088,
        "Satellite Name": "Starlink Shell 1 756",
        "Satellite Number": 756,
        "Semi-Major Axis(m)": 6931778.249405717,
        "Time(s)": 320
    },
    {
        "Altitude(m)": 554036.377351525,
        "Argument of Periapsis(deg)": 0.011503089823870818,
        "Eccentricity": 0.0,
        "Inclination(deg)": 53.0,
        "Latitude(deg)": 22.374864693590215,
        "Longitude(deg)": -129.33448801277456,
        "Mean Anomaly(deg)": 151.59452971737161,
        "RAAN(deg)": 169.98288058744342,
        "Satellite Name": "Starlink Shell 1 756",
        "Satellite Number": 756,
        "Semi-Major Axis(m)": 6931778.249405717,
        "Time(s)": 330
    },
    {
        "Altitude(m)": 553988.3245404137,
        "Argument of Periapsis(deg)": 0.011851668303382053,
        "Eccentricity": 0.0,
        "Inclination(deg)": 53.0,
        "Latitude(deg)": 21.89539351908182,
        "Longitude(deg)": -128.93706705041,
        "Mean Anomaly(deg)": 152.2213609209283,
        "RAAN(deg)": 169.98236181736596,
        "Satellite Name": "Starlink Shell 1 756",
        "Satellite Number": 756,
        "Semi-Major Axis(m)": 6931778.249405717,
        "Time(s)": 340
    },
    {
        "Altitude(m)": 553942.1883125243,
        "Argument of Periapsis(deg)": 0.012200246782893292,
        "Eccentricity": 0.0,
        "Inclination(deg)": 53.0,
        "Latitude(deg)": 21.41473490544083,
        "Longitude(deg)": -128.54257282091902,
        "Mean Anomaly(deg)": 152.84819212448505,
        "RAAN(deg)": 169.98184304728846,
        "Satellite Name": "Starlink Shell 1 756",
        "Satellite Number": 756,
        "Semi-Major Axis(m)": 6931778.249405717,
        "Time(s)": 350
    },
    {
        "Altitude(m)": 553898.0119748804,
        "Argument of Periapsis(deg)": 0.012548825262404526,
        "Eccentricity": 0.0,
        "Inclination(deg)": 53.0,
        "Latitude(deg)": 20.932924793076296,
        "Longitude(deg)": -128.15092237224573,
        "Mean Anomaly(deg)": 153.4750233280418,
        "RAAN(deg)": 169.981324277211,
        "Satellite Name": "Starlink Shell 1 756",
        "Satellite Number": 756,
        "Semi-Major Axis(m)": 6931778.249405717,
        "Time(s)": 360
    },
    {
        "Altitude(m)": 553855.8380107585,
        "Argument of Periapsis(deg)": 0.012897403741915765,
        "Eccentricity": 0.0,
        "Inclination(deg)": 53.0,
        "Latitude(deg)": 20.449998457097728,
        "Longitude(deg)": -127.76203438213192,
        "Mean Anomaly(deg)": 154.10185453159843,
        "RAAN(deg)": 169.98080550713354,
        "Satellite Name": "Starlink Shell 1 756",
        "Satellite Number": 756,
        "Semi-Major Axis(m)": 6931778.249405717,
        "Time(s)": 370
    }
]